[{"OBJECT_NAME":"KOSEN-1","OBJECT_ID":"2021-102H","EPOCH":"2026-03-09T22:29:54.100608","MEAN_MOTION":15.25323573,"ECCENTRICITY":0.00138659,"INCLINATION":97.3334,"RA_OF_ASC_NODE":113.0569,"ARG_OF_PERICENTER":191.9191,"MEAN_ANOMALY":168.1721,"EPHEMERIS_TYPE":0,"CLASSIFICATION_TYPE":"U","NORAD_CAT_ID":49402,"ELEMENT_SET_NO":999,"REV_AT_EPOCH":23888,"BSTAR":0.00040411561,"MEAN_MOTION_DOT":0.00010142,"MEAN_MOTION_DDOT":0},{"OBJECT_NAME":"STARLINK-35906","OBJECT_ID":"2025-299L","EPOCH":"2026-03-09T07:14:01.951872","MEAN_MOTION":15.28438054,"ECCENTRICITY":0.00030071,"INCLINATION":42.9986,"RA_OF_ASC_NODE":171.4614,"ARG_OF_PERICENTER":286.1637,"MEAN_ANOMALY":73.8884,"EPHEMERIS_TYPE":0,"CLASSIFICATION_TYPE":"U","NORAD_CAT_ID":67112,"ELEMENT_SET_NO":999,"REV_AT_EPOCH":1305,"BSTAR":0.0013806493,"MEAN_MOTION_DOT":0.00038947,"MEAN_MOTION_DDOT":0}]
